NORAD_CAT_ID,OBJECT_NAME,OBJECT_TYPE,EPOCH,MEAN_MOTION,ECCENTRICITY,INCLINATION,RA_OF_ASC_NODE,ARG_OF_PERICENTER,MEAN_ANOMALY,BSTAR,MEAN_MOTION_DOT,MEAN_MOTION_DDOT,TLE_LINE0,TLE_LINE1,TLE_LINE2,SEMIMAJOR_AXIS,PERIOD,APOGEE,PERIGEE,DECAYED
54208.0,STARLINK-5255,PAYLOAD,2024-02-14 14:02:47,15.08855845,0.000154,53.2165,114.4732,80.6433,279.4733,0.00045938,7.034e-05,0.0,0 STARLINK-5255,1 54208U 22141BD  24045.58526813  .00007034  00000-0  45938-3 0  9998,2 54208  53.2165 114.4732 0001540  80.6433 279.4733 15.08855845 72507,6917.832,95.437,540.762,538.632,0.0
54208.0,STARLINK-5255,PAYLOAD,2024-02-14 21:59:43,15.08837957,0.0001878,53.2164,112.9885,77.9999,282.1203,0.00015748,2.219e-05,0.0,0 STARLINK-5255,1 54208U 22141BD  24045.91647699  .00002219  00000-0  15748-3 0  9997,2 54208  53.2164 112.9885 0001878  77.9999 282.1203 15.08837957 72550,6917.887,95.438,541.051,538.452,0.0
54208.0,STARLINK-5255,PAYLOAD,2024-02-15 04:21:16,15.0883721,0.000217,53.2163,111.7983,86.3605,273.7635,0.00017003,2.419e-05,0.0,0 STARLINK-5255,1 54208U 22141BD  24046.18144102  .00002419  00000-0  17003-3 0  9996,2 54208  53.2163 111.7983 0002170  86.3605 273.7635 15.08837210 72826,6917.889,95.438,541.255,538.253,0.0
54208.0,STARLINK-5255,PAYLOAD,2024-02-15 10:42:49,15.08835647,0.0001976,53.2165,110.608,93.1054,267.0164,9.6817e-05,1.253e-05,0.0,0 STARLINK-5255,1 54208U 22141BD  24046.44640133  .00001253  00000-0  96817-4 0  9996,2 54208  53.2165 110.6080 0001976  93.1054 267.0164 15.08835647 72635,6917.894,95.438,541.126,538.392,0.0
54208.0,STARLINK-5255,PAYLOAD,2024-02-16 10:33:35,15.08848505,0.0001592,53.2173,106.1495,88.4435,271.674,0.00031999,4.809e-05,0.0,0 STARLINK-5255,1 54208U 22141BD  24047.43999901  .00004809  00000-0  31999-3 0  9995,2 54208  53.2173 106.1495 0001592  88.4435 271.6740 15.08848505 73019,6917.854,95.437,540.821,538.618,0.0
54208.0,STARLINK-5255,PAYLOAD,2024-02-17 10:24:23,15.08845593,0.0001742,53.2165,101.6858,91.4266,268.6926,0.00024651,3.638e-05,0.0,0 STARLINK-5255,1 54208U 22141BD  24048.43360094  .00003638  00000-0  24651-3 0  9997,2 54208  53.2165 101.6858 0001742  91.4266 268.6926 15.08845593 73168,6917.863,95.437,540.933,538.523,0.0
54208.0,STARLINK-5255,PAYLOAD,2024-02-17 19:56:41,15.08844623,0.0001572,53.2169,99.9022,88.8147,271.3025,0.00013291,1.828e-05,0.0,0 STARLINK-5255,1 54208U 22141BD  24048.83103886  .00001828  00000-0  13291-3 0  9992,2 54208  53.2169  99.9022 0001572  88.8147 271.3025 15.08844623 72997,6917.866,95.437,540.819,538.644,0.0
54208.0,STARLINK-5255,PAYLOAD,2024-02-18 03:53:37,15.08836755,0.0001775,53.2195,98.4196,99.3949,260.7244,-5.7738e-05,-1.207e-05,0.0,0 STARLINK-5255,1 54208U 22141BD  24049.16224268 -.00001207  00000-0 -57738-4 0  9995,2 54208  53.2195  98.4196 0001775  99.3949 260.7244 15.08836755 73278,6917.89,95.438,540.983,538.527,0.0
54208.0,STARLINK-5255,PAYLOAD,2024-02-18 10:15:10,15.08841374,0.0001647,53.2187,97.2298,93.3559,266.7622,3.5937e-05,2.84e-06,0.0,0 STARLINK-5255,1 54208U 22141BD  24049.42720389  .00000284  00000-0  35937-4 0  9998,2 54208  53.2187  97.2298 0001647  93.3559 266.7622 15.08841374 73086,6917.876,95.437,540.881,538.602,0.0
54208.0,STARLINK-5255,PAYLOAD,2024-02-18 19:47:29,15.08837383,0.0001587,53.2182,95.4456,92.0549,268.0625,1.7888e-05,-3e-08,0.0,0 STARLINK-5255,1 54208U 22141BD  24049.82464680 -.00000003  00000-0  17888-4 0  9996,2 54208  53.2182  95.4456 0001587  92.0549 268.0625 15.08837383 73145,6917.888,95.438,540.851,538.656,0.0
54208.0,STARLINK-5255,PAYLOAD,2024-02-19 10:05:57,15.08839537,0.0001669,53.2181,92.7696,105.3693,254.7484,0.00011975,1.618e-05,0.0,0 STARLINK-5255,1 54208U 22141BD  24050.42080495  .00001618  00000-0  11975-3 0  9994,2 54208  53.2181  92.7696 0001669 105.3693 254.7484 15.08839537 73462,6917.882,95.438,540.901,538.592,0.0
54208.0,STARLINK-5255,PAYLOAD,2024-02-19 19:38:16,15.08841789,0.0001518,53.2174,90.9841,93.1644,266.9522,8.4798e-05,1.062e-05,0.0,0 STARLINK-5255,1 54208U 22141BD  24050.81824440  .00001062  00000-0  84798-4 0  9990,2 54208  53.2174  90.9841 0001518  93.1644 266.9522 15.08841789 73290,6917.875,95.437,540.79,538.69,0.0
54208.0,STARLINK-5255,PAYLOAD,2024-02-20 11:32:08,15.08838404,0.0001625,53.2178,88.0107,86.2716,273.8462,9.851e-05,1.28e-05,0.0,0 STARLINK-5255,1 54208U 22141BD  24051.48064868  .00001280  00000-0  98510-4 0  9993,2 54208  53.2178  88.0107 0001625  86.2716 273.8462 15.08838404 73626,6917.885,95.438,540.874,538.626,0.0
54208.0,STARLINK-5255,PAYLOAD,2024-02-20 19:29:03,15.08837678,0.0001729,53.2181,86.5227,86.3439,273.7751,7.6202e-05,9.25e-06,0.0,0 STARLINK-5255,1 54208U 22141BD  24051.81185010  .00000925  00000-0  76202-4 0  9992,2 54208  53.2181  86.5227 0001729  86.3439 273.7751 15.08837678 73446,6917.887,95.438,540.949,538.556,0.0
54208.0,STARLINK-5255,PAYLOAD,2024-02-21 09:47:31,15.08848428,0.0001519,53.2168,83.8465,89.867,270.2496,0.00011098,1.479e-05,0.0,0 STARLINK-5255,1 54208U 22141BD  24052.40800223  .00001479  00000-0  11098-3 0  9994,2 54208  53.2168  83.8465 0001519  89.8670 270.2496 15.08848428 73765,6917.855,95.437,540.77,538.669,0.0
54208.0,STARLINK-5255,PAYLOAD,2024-02-21 19:19:50,15.08843148,0.0001437,53.216,82.061,86.7122,273.4035,6.3199e-05,7.18e-06,0.0,0 STARLINK-5255,1 54208U 22141BD  24052.80544507  .00000718  00000-0  63199-4 0  9993,2 54208  53.2160  82.0610 0001437  86.7122 273.4035 15.08843148 73822,6917.871,95.437,540.73,538.742,0.0
54208.0,STARLINK-5255,PAYLOAD,2024-02-22 01:41:23,15.08836334,0.0001759,53.2179,80.8724,86.4397,273.6796,7.9598e-05,9.79e-06,0.0,0 STARLINK-5255,1 54208U 22141BD  24053.07041045  .00000979  00000-0  79598-4 0  9991,2 54208  53.2179  80.8724 0001759  86.4397 273.6796 15.08836334 73861,6917.892,95.438,540.973,538.54,0.0
54208.0,STARLINK-5255,PAYLOAD,2024-02-22 08:02:55,15.08838603,0.0001756,53.2178,79.6833,86.3088,273.8104,9.0534e-05,1.153e-05,0.0,0 STARLINK-5255,1 54208U 22141BD  24053.33536921  .00001153  00000-0  90534-4 0  9990,2 54208  53.2178  79.6833 0001756  86.3088 273.8104 15.08838603 73675,6917.885,95.438,540.964,538.535,0.0
54208.0,STARLINK-5255,PAYLOAD,2024-02-23 11:04:28,15.08851785,0.0001526,53.217,74.6257,97.4078,262.7087,8.1441e-05,1.009e-05,0.0,0 STARLINK-5255,1 54208U 22141BD  24054.46143822  .00001009  00000-0  81441-4 0  9996,2 54208  53.2170  74.6257 0001526  97.4078 262.7087 15.08851785 74077,6917.844,95.437,540.765,538.654,0.0
54208.0,STARLINK-5255,PAYLOAD,2024-02-24 04:33:43,15.08833852,0.0001446,53.2165,71.3544,97.0412,263.0744,5.7914e-05,6.34e-06,0.0,0 STARLINK-5255,1 54208U 22141BD  24055.19009202  .00000634  00000-0  57914-4 0  9991,2 54208  53.2165  71.3544 0001446  97.0412 263.0744 15.08833852 74184,6917.899,95.438,540.765,538.764,0.0
54208.0,STARLINK-5255,PAYLOAD,2024-02-24 10:55:16,15.08838782,0.000143,53.2171,70.1651,90.8739,269.2417,6.2298e-05,7.04e-06,0.0,0 STARLINK-5255,1 54208U 22141BD  24055.45505091  .00000704  00000-0  62298-4 0  9996,2 54208  53.2171  70.1651 0001430  90.8739 269.2417 15.08838782 73993,6917.884,95.438,540.738,538.76,0.0
54208.0,STARLINK-5255,PAYLOAD,2024-02-25 04:24:30,15.08846179,0.000147,53.2175,66.8942,90.7095,269.4066,9.3372e-05,1.199e-05,0.0,0 STARLINK-5255,1 54208U 22141BD  24056.18368655  .00001199  00000-0  93372-4 0  9996,2 54208  53.2175  66.8942 0001470  90.7095 269.4066 15.08846179 74330,6917.862,95.437,540.743,538.71,0.0
54208.0,STARLINK-5255,PAYLOAD,2024-02-25 07:35:16,15.08849718,0.0001485,53.2159,66.3003,86.9892,273.127,0.00018708,2.691e-05,0.0,0 STARLINK-5255,1 54208U 22141BD  24056.31616492  .00002691  00000-0  18708-3 0  9993,2 54208  53.2159  66.3003 0001485  86.9892 273.1270 15.08849718 74121,6917.851,95.437,540.743,538.688,0.0
54208.0,STARLINK-5255,PAYLOAD,2024-02-25 17:07:35,15.08845892,0.0001449,53.2156,64.5166,84.7506,275.3652,9.2933e-05,1.192e-05,0.0,0 STARLINK-5255,1 54208U 22141BD  24056.71360603  .00001192  00000-0  92933-4 0  9995,2 54208  53.2156  64.5166 0001449  84.7506 275.3652 15.08845892 74189,6917.862,95.437,540.73,538.725,0.0
54208.0,STARLINK-5255,PAYLOAD,2024-02-26 04:15:17,15.08842528,0.0001583,53.2167,62.4376,91.1376,268.9797,0.00012549,1.71e-05,0.0,0 STARLINK-5255,1 54208U 22141BD  24057.17728852  .00001710  00000-0  12549-3 0  9990,2 54208  53.2167  62.4376 0001583  91.1376 268.9797 15.08842528 74481,6917.873,95.437,540.833,538.643,0.0
54208.0,STARLINK-5255,PAYLOAD,2024-02-26 05:50:40,15.08841189,0.0001604,53.2169,62.1401,90.9871,269.1305,0.00019314,2.787e-05,0.0,0 STARLINK-5255,1 54208U 22141BD  24057.24352880  .00002787  00000-0  19314-3 0  9994,2 54208  53.2169  62.1401 0001604  90.9871 269.1305 15.08841189 74266,6917.877,95.437,540.851,538.632,0.0
54208.0,STARLINK-5255,PAYLOAD,2024-02-27 04:06:05,15.0883522,0.0001681,53.2179,57.9766,94.5186,265.5998,-7.7103e-05,-1.515e-05,0.0,0 STARLINK-5255,1 54208U 22141BD  24058.17089280 -.00001515  00000-0 -77103-4 0  9999,2 54208  53.2179  57.9766 0001681  94.5186 265.5998 15.08835220 74635,6917.895,95.438,540.923,538.597,0.0
54208.0,STARLINK-5255,PAYLOAD,2024-02-27 08:52:14,15.08837044,0.0001622,53.2185,57.0851,96.0964,264.0213,-1.0946e-05,-4.62e-06,0.0,0 STARLINK-5255,1 54208U 22141BD  24058.36961678 -.00000462  00000-0 -10946-4 0  9992,2 54208  53.2185  57.0851 0001622  96.0964 264.0213 15.08837044 74432,6917.889,95.438,540.877,538.632,0.0
54208.0,STARLINK-5255,PAYLOAD,2024-02-28 07:07:38,15.08843721,0.0001589,53.218,52.9188,88.8112,271.3062,8.1666e-05,1.012e-05,0.0,0 STARLINK-5255,1 54208U 22141BD  24059.29697099  .00001012  00000-0  81666-4 0  9995,2 54208  53.2180  52.9188 0001589  88.8112 271.3062 15.08843721 74803,6917.869,95.437,540.833,538.635,0.0
54208.0,STARLINK-5255,PAYLOAD,2024-02-28 16:39:57,15.08836598,0.0001559,53.2178,51.1326,86.8103,273.3067,8.1337e-05,1.007e-05,0.0,0 STARLINK-5255,1 54208U 22141BD  24059.69441565  .00001007  00000-0  81337-4 0  9993,2 54208  53.2178  51.1326 0001559  86.8103 273.3067 15.08836598 74867,6917.891,95.438,540.834,538.677,0.0
